GSAT0201 (GALILEO 5)    
1 40128U 14050A   23239.25807119 -.00000050  00000+0  00000+0 0  9991
2 40128  49.9425 314.8908 1609272 140.0678 232.9777  1.85519036 59308
GSAT0202 (GALILEO 6)    
1 40129U 14050B   23238.43950087 -.00000050  00000+0  00000+0 0  9994
2 40129  49.9626 313.9949 1607176 140.8476 231.9830  1.85519728 61458
IRNSS-1C                
1 40269U 14061A   23238.75327064 -.00000166  00000+0  00000+0 0  9997
2 40269   3.9431 112.9775 0020181  16.4798 199.4790  1.00272137 32548
NAVSTAR 72 (USA 258)    
1 40294U 14068A   23238.84663648  .00000004  00000+0  00000+0 0  9993
2 40294  56.1692  70.7931 0049029  61.5905 298.9733  2.00571178 64649
COSMOS 2501             
1 40315U 14075A   23238.49977843  .00000096  00000+0  00000+0 0  9992
2 40315  63.6410 225.9676 0020162 211.6057 148.2878  2.13101319 67995
NAVSTAR 73 (USA 260)    
1 40534U 15013A   23238.48341797  .00000082  00000+0  00000+0 0  9995
2 40534  53.4685 246.6571 0079981  25.1572 335.2699  2.00555196 61250
GSAT0203 (GALILEO 7)    
1 40544U 15017A   23237.69089239 -.00000073  00000+0  00000+0 0  9993
2 40544  56.9040   9.5345 0002735 221.4574 138.5286  1.70476062 51700
GSAT0204 (GALILEO 8)    
1 40545U 15017B   23236.77132544 -.00000072  00000+0  00000+0 0  9999
2 40545  56.9097   9.5738 0003200 203.2923 156.7011  1.70475543 14736
IRNSS-1D                
1 40547U 15018A   23238.97941924 -.00000253  00000+0  00000+0 0  9997
2 40547  28.0897 257.7761 0020468 191.5356 349.9477  1.00267346 30703
BEIDOU-3S IGSO-1S       
1 40549U 15019A   23238.17334851 -.00000153  00000+0  00000+0 0  9996
2 40549  51.1169 307.6820 0040688 195.6346 347.6357  1.00257810 30780
NAVSTAR 74 (USA 262)    
1 40730U 15033A   23239.14362001 -.00000026  00000+0  00000+0 0  9999
2 40730  54.8522 309.0643 0084970  14.0102 346.2921  2.00555628 59434
BEIDOU-3S M2S           
1 40748U 15037A   23238.74137779 -.00000080  00000+0  00000+0 0  9999
2 40748  55.6676 337.0589 0010858 239.8770 120.0489  1.86233066 55024
BEIDOU-3S M1S           
1 40749U 15037B   23238.47451680 -.00000080  00000+0  00000+0 0  9990
2 40749  55.6706 337.0542 0002854 305.4666  54.5401  1.86232771 55026
GSAT0205 (GALILEO 9)    
1 40889U 15045A   23238.29903787  .00000076  00000+0  00000+0 0  9998
2 40889  55.3683 249.9461 0003346 357.2493   2.7953  1.70473402 49529
GSAT0206 (GALILEO 10)   
1 40890U 15045B   23237.34655511  .00000076  00000+0  00000+0 0  9994
2 40890  55.3679 249.9680 0002315 321.8371  38.1917  1.70473394 49530
BEIDOU-3S IGSO-2S       
1 40938U 15053A   23239.39972076 -.00000076  00000+0  00000+0 0  9992
2 40938  50.8216 270.8381 0047775 194.4856 109.6972  1.00284811 29071
NAVSTAR 75 (USA 265)    
1 41019U 15062A   23238.69798317  .00000003  00000+0  00000+0 0  9998
2 41019  56.1534  70.6485 0088729 221.0362 138.3609  2.00562198 57264
GSAT-15                 
1 41028U 15065A   23238.97585131 -.00000261  00000+0  00000+0 0  9997
2 41028   0.0822 274.3481 0002277 203.9410 301.4773  1.00270601 28513
GSAT0209 (GALILEO 12)   
1 41174U 15079A   23239.27798926 -.00000004  00000+0  00000+0 0  9991
2 41174  55.2968 129.4217 0003300 326.9179  33.1235  1.70473853 47885
GSAT0208 (GALILEO 11)   
1 41175U 15079B   23238.32442760 -.00000003  00000+0  00000+0 0  9998
2 41175  55.2945 129.4461 0002657 328.9403  31.1039  1.70473745 47709
IRNSS-1E                
1 41241U 16003A   23238.97941924 -.00000302  00000+0  00000+0 0  9999
2 41241  30.9567  77.9219 0019900 173.7541 187.6706  1.00269123 27802
NAVSTAR 76 (USA 266)    
1 41328U 16007A   23238.79059172 -.00000008  00000+0  00000+0 0  9997
2 41328  55.0140 130.1901 0071313 233.9875 125.4059  2.00575891 55274
COSMOS 2514             
1 41330U 16008A   23238.95029758 -.00000067  00000+0  00000+0 0  9991
2 41330  65.5062 347.9622 0011481 205.5371 154.4278  2.13102473 58779
IRNSS-1F                
1 41384U 16015A   23238.96366814  .00000154  00000+0  00000+0 0  9992
2 41384   2.9156 130.2175 0018180 177.0272  46.9392  1.00266776 27386
BEIDOU-2 IGSO-6         
1 41434U 16021A   23239.33507498 -.00000129  00000+0  00000+0 0  9995
2 41434  58.7406  48.3474 0047108 217.6815 286.1087  1.00284242 27192
IRNSS-1G                
1 41469U 16027A   23238.98307418 -.00000339  00000+0  00000+0 0  9992
2 41469   2.8078 131.9323 0003780 356.9989 329.4950  1.00267882 26891
GSAT0211 (GALILEO 14)   
1 41549U 16030A   23237.27223125  .00000076  00000+0  00000+0 0  9995
2 41549  55.5151 249.9492 0003918 307.0377  52.9715  1.70473531 45160
GSAT0210 (GALILEO 13)   
1 41550U 16030B   23238.15035376  .00000077  00000+0  00000+0 0  9995
2 41550  55.5140 249.9261 0004227 273.2450  86.7530  1.70473653 45170
COSMOS 2516             
1 41554U 16032A   23238.12676964  .00000100  00000+0  00000+0 0  9999
2 41554  63.8675 226.3789 0015536 214.7613 145.1534  2.13106405 56362
BEIDOU-2 G7             
1 41586U 16037A   23239.16695708 -.00000358  00000+0  00000+0 0  9997
2 41586   1.8497  68.3142 0007737 348.2928  89.1711  1.00275065 26516
EUTELSAT 117 WEST B     
1 41589U 16038B   23239.34360160 -.00000016  00000+0  00000+0 0  9993
2 41589   0.0096   6.9076 0000244 283.3566  51.7467  1.00271064 26385
GSAT0207 (GALILEO 15)   
1 41859U 16069A   23238.39866786 -.00000004  00000+0  00000+0 0  9993
2 41859  54.9589 129.5201 0003323 307.1286  52.9007  1.70473805 41910
GSAT0212 (GALILEO 16)   
1 41860U 16069B   23237.08017750  .00000001  00000+0  00000+0 0  9995
2 41860  54.9560 129.5535 0002541 349.0650  10.9893  1.70474010 42144
GSAT0213 (GALILEO 17)   
1 41861U 16069C   23234.51323833  .00000009  00000+0  00000+0 0  9991
2 41861  54.9575 129.6307 0003187 280.2221  79.8081  1.70472742 41968
GSAT0214 (GALILEO 18)   
1 41862U 16069D   23237.59339753 -.00000001  00000+0  00000+0 0  9994
2 41862  54.9572 129.5393 0002150 288.6937  71.3423  1.70472544 42143
SES-15                  
1 42709U 17026A   23239.43770605  .00000056  00000+0  00000+0 0  9998
2 42709   0.0218  41.4880 0000524  91.9551 230.3792  1.00268423 23862
QZS-2 (MICHIBIKI-2)     
1 42738U 17028A   23239.38443832 -.00000093  00000+0  00000+0 0  9997
2 42738  41.0564 257.9786 0752992 269.9763  87.1774  1.00267096 22870
QZS-3 (MICHIBIKI-3)     
1 42917U 17048A   23238.98255205 -.00000351  00000+0  00000+0 0  9995
2 42917   0.0768 225.8003 0002125 299.8855 289.9815  1.00276667 21978
COSMOS 2522             
1 42939U 17055A   23237.85363573  .00000103  00000+0  00000+0 0  9994
2 42939  64.1017 226.9108 0010055 243.2703 116.6441  2.13101936 46108
QZS-4 (MICHIBIKI-4)     
1 42965U 17062A   23238.64185524 -.00000305  00000+0  00000+0 0  9992
2 42965  40.6397 356.5574 0747085 269.1225  79.2584  1.00282902 21529
BEIDOU-3 M1             
1 43001U 17069A   23239.08880185  .00000011  00000+0  00000+0 0  9998
2 43001  55.8353  97.1023 0008093 301.7500  58.2610  1.86231407 39519
BEIDOU-3 M2             
1 43002U 17069B   23239.02551455  .00000010  00000+0  00000+0 0  9997
2 43002  55.8348  97.1399 0006608 333.4177  26.6381  1.86231099 39502
GSAT0215 (GALILEO 19)   
1 43055U 17079A   23239.25540045  .00000074  00000+0  00000+0 0  9994
2 43055  55.4906 249.7207 0003769 267.6858  92.3163  1.70474145 35517
GSAT0216 (GALILEO 20)   
1 43056U 17079B   23237.20099100  .00000076  00000+0  00000+0 0  9991
2 43056  55.4917 249.7772 0005326 273.3466  86.6371  1.70474333 35490
GSAT0217 (GALILEO 21)   
1 43057U 17079C   23238.00792849  .00000077  00000+0  00000+0 0  9992
2 43057  55.4905 249.7538 0004669 284.4918  75.5023  1.70474284 35498
GSAT0218 (GALILEO 22)   
1 43058U 17079D   23238.22798246  .00000077  00000+0  00000+0 0  9994
2 43058  55.4897 249.7453 0005777 270.8044  89.1754  1.70474213 35499
BEIDOU-3 M7             
1 43107U 18003A   23239.31329785 -.00000081  00000+0  00000+0 0  9992
2 43107  55.1232 337.7597 0003762  78.8941 281.1806  1.86232367 38264
BEIDOU-3 M8             
1 43108U 18003B   23238.71437913 -.00000081  00000+0  00000+0 0  9999
2 43108  55.1166 337.7673 0003750 241.2940 118.7007  1.86230832 38261
BEIDOU-3 M4             
1 43207U 18018A   23239.15681255  .00000011  00000+0  00000+0 0  9996
2 43207  55.7940  97.1992 0005005  10.0167 350.0834  1.86231335 37656
BEIDOU-3 M3             
1 43208U 18018B   23238.14955156  .00000004  00000+0  00000+0 0  9991
2 43208  55.7927  97.2375 0006152 318.5497  41.4904  1.86231268 37636
BEIDOU-3 M9             
1 43245U 18029A   23238.37240185 -.00000079  00000+0  00000+0 0  9991
2 43245  55.0187 335.5271 0001206 201.3675 158.6627  1.86232429 36792
BEIDOU-3 M10            
1 43246U 18029B   23238.30245422 -.00000079  00000+0  00000+0 0  9994
2 43246  55.0157 335.5576 0002717   2.2735 357.7628  1.86232848 36777
IRNSS-1I                
1 43286U 18035A   23238.68149488  .00000078  00000+0  00000+0 0  9999
2 43286  29.2288  90.3325 0019127 177.0525   7.7670  1.00268882 19793
COSMOS 2527             
1 43508U 18053A   23239.22010216  .00000027  00000+0  00000+0 0  9997
2 43508  65.0884 108.2223 0007377 221.7008 138.3305  2.13102372 40430
BEIDOU-2 IGSO-7         
1 43539U 18057A   23238.74285490 -.00000152  00000+0  00000+0 0  9999
2 43539  55.1212 171.9348 0064588 231.4172 311.7710  1.00286147 18868
GSAT0221 (GALILEO 25)   
1 43564U 18060A   23236.36791119 -.00000071  00000+0  00000+0 0  9997
2 43564  57.2843   9.4959 0002311 253.1397 106.8429  1.70475984 31645
GSAT0222 (GALILEO 26)   
1 43565U 18060B   23237.75914760 -.00000073  00000+0  00000+0 0  9993
2 43565  57.2880   9.4595 0003079 205.9737 154.0173  1.70475715 31719
GSAT0219 (GALILEO 23)   
1 43566U 18060C   23238.56807338 -.00000075  00000+0  00000+0 0  9998
2 43566  57.2872   9.4397 0001431 256.9537 103.0349  1.70475942 31705
GSAT0220 (GALILEO 24)   
1 43567U 18060D   23236.44214582 -.00000071  00000+0  00000+0 0  9993
2 43567  57.2864   9.4981 0001637 249.9704 110.0199  1.70475804 31654
BEIDOU-3 M5             
1 43581U 18062A   23238.52277507  .00000076  00000+0  00000+0 0  9992
2 43581  54.1800 217.2132 0005505 278.5374  81.3914  1.86231811 34532
